STARLINK-4261           
1 52868U 22062AQ  25269.64860539 -.00002872  00000+0 -16241-3 0  9993
2 52868  53.2192  40.5589 0001163  90.4433 269.6692 15.08849668181160
STARLINK-4266           
1 52869U 22062AR  25269.63113682  .00000845  00000+0  71174-4 0  9996
2 52869  53.2191  30.6092 0001322  98.6471 261.4671 15.08829440181295
STARLINK-4195           
1 52870U 22062AS  25269.64125025  .00003169  00000+0  21710-3 0  9995
2 52870  53.2176  40.5673 0001379  70.9894 289.1247 15.08836699181165
STARLINK-4207           
1 52871U 22062AT  25269.62008485  .00001149  00000+0  90235-4 0  9999
2 52871  53.2189  30.6595 0001324  94.1705 265.9439 15.08840896181295
STARLINK-4213           
1 52872U 22062AU  25269.62472037  .00000954  00000+0  78022-4 0  9991
2 52872  53.2194  30.6097 0001721  89.4322 270.6867 15.08838735181299
STARLINK-4211           
1 52873U 22062AV  25269.61273102  .00000603  00000+0  55940-4 0  9998
2 52873  53.2179  30.6908 0001133  86.6740 273.4381 15.08839428181296
STARLINK-4210           
1 52874U 22062AW  25269.63581167  .00761394  00000+0  22578-2 0  9994
2 52874  53.2166   5.2093 0001244  64.5588 295.5568 15.90184953181653
STARLINK-4193           
1 52875U 22062AX  25269.74153105  .00002513  00000+0  17590-3 0  9994
2 52875  53.2185  30.1131 0001057  89.4087 270.7027 15.08842649181317
STARLINK-4200           
1 52876U 22062AY  25269.61641114  .00000205  00000+0  30971-4 0  9998
2 52876  53.2183  30.6767 0001298  93.1544 266.9597 15.08836427181296
STARLINK-4214           
1 52877U 22062AZ  25269.64953391  .00001336  00000+0  10199-3 0  9990
2 52877  53.2189  30.5325 0001208  87.6612 272.4518 15.08836769181303
STARLINK-4171           
1 52878U 22062BA  25269.73783686  .00003038  00000+0  20881-3 0  9999
2 52878  53.2190  30.1295 0001288  86.7729 273.3410 15.08852689181316
STARLINK-4139           
1 52879U 22062BB  25269.63849987 -.00000767  00000+0 -30137-4 0  9990
2 52879  53.2174  30.5748 0001229  76.5202 283.5927 15.08826093181309
STARLINK-4186           
1 52880U 22062BC  25269.64217355  .00000477  00000+0  48063-4 0  9994
2 52880  53.2190  30.5564 0001154  89.5359 270.5765 15.08832816181305
STARLINK-4181           
1 52882U 22062BE  25269.66051886  .00001780  00000+0  12990-3 0  9990
2 52882  53.2186  30.0526 0001227  84.4849 275.6283 15.08836518181319
STARLINK-4260           
1 52986U 22076A   25269.70105081  .00001194  00000+0  93087-4 0  9998
2 52986  53.2153 110.2941 0001248  90.5218 269.5917 15.08841167178083
STARLINK-4259           
1 52987U 22076B   25269.80685077  .00000643  00000+0  58498-4 0  9993
2 52987  53.2166 119.8179 0001368  98.3977 261.7171 15.08836285177964
