[{"OBJECT_NAME":"STARLINK-4261","OBJECT_ID":"2022-062AQ","EPOCH":"2025-09-26T15:33:59.505696","MEAN_MOTION":15.08849668,"ECCENTRICITY":0.0001163,"INCLINATION":53.2192,"RA_OF_ASC_NODE":40.5589,"ARG_OF_PERICENTER":90.4433,"MEAN_ANOMALY":269.6692,"EPHEMERIS_TYPE":0,"CLASSIFICATION_TYPE":"U","NORAD_CAT_ID":52868,"ELEMENT_SET_NO":999,"REV_AT_EPOCH":18116,"BSTAR":-0.0001624063,"MEAN_MOTION_DOT":-2.872e-5,"MEAN_MOTION_DDOT":0},{"OBJECT_NAME":"STARLINK-4266","OBJECT_ID":"2022-062AR","EPOCH":"2025-09-26T15:08:50.221248","MEAN_MOTION":15.0882944,"ECCENTRICITY":0.00013224,"INCLINATION":53.2191,"RA_OF_ASC_NODE":30.6092,"ARG_OF_PERICENTER":98.6471,"MEAN_ANOMALY":261.4671,"EPHEMERIS_TYPE":0,"CLASSIFICATION_TYPE":"U","NORAD_CAT_ID":52869,"ELEMENT_SET_NO":999,"REV_AT_EPOCH":18129,"BSTAR":7.1173954e-5,"MEAN_MOTION_DOT":8.45e-6,"MEAN_MOTION_DDOT":0},{"OBJECT_NAME":"STARLINK-4195","OBJECT_ID":"2022-062AS","EPOCH":"2025-09-26T15:23:24.021600","MEAN_MOTION":15.08836699,"ECCENTRICITY":0.00013794,"INCLINATION":53.2176,"RA_OF_ASC_NODE":40.5673,"ARG_OF_PERICENTER":70.9894,"MEAN_ANOMALY":289.1247,"EPHEMERIS_TYPE":0,"CLASSIFICATION_TYPE":"U","NORAD_CAT_ID":52870,"ELEMENT_SET_NO":999,"REV_AT_EPOCH":18116,"BSTAR":0.00021709732,"MEAN_MOTION_DOT":3.169e-5,"MEAN_MOTION_DDOT":0},{"OBJECT_NAME":"STARLINK-4207","OBJECT_ID":"2022-062AT","EPOCH":"2025-09-26T14:52:55.331040","MEAN_MOTION":15.08840896,"ECCENTRICITY":0.00013248,"INCLINATION":53.2189,"RA_OF_ASC_NODE":30.6595,"ARG_OF_PERICENTER":94.1705,"MEAN_ANOMALY":265.9439,"EPHEMERIS_TYPE":0,"CLASSIFICATION_TYPE":"U","NORAD_CAT_ID":52871,"ELEMENT_SET_NO":999,"REV_AT_EPOCH":18129,"BSTAR":9.0235018e-5,"MEAN_MOTION_DOT":1.149e-5,"MEAN_MOTION_DDOT":0},{"OBJECT_NAME":"STARLINK-4213","OBJECT_ID":"2022-062AU","EPOCH":"2025-09-26T14:59:35.839968","MEAN_MOTION":15.08838735,"ECCENTRICITY":0.00017218,"INCLINATION":53.2194,"RA_OF_ASC_NODE":30.6097,"ARG_OF_PERICENTER":89.4322,"MEAN_ANOMALY":270.6867,"EPHEMERIS_TYPE":0,"CLASSIFICATION_TYPE":"U","NORAD_CAT_ID":52872,"ELEMENT_SET_NO":999,"REV_AT_EPOCH":18129,"BSTAR":7.8022189e-5,"MEAN_MOTION_DOT":9.54e-6,"MEAN_MOTION_DDOT":0},{"OBJECT_NAME":"STARLINK-4211","OBJECT_ID":"2022-062AV","EPOCH":"2025-09-26T14:42:19.960128","MEAN_MOTION":15.08839428,"ECCENTRICITY":0.00011332,"INCLINATION":53.2179,"RA_OF_ASC_NODE":30.6908,"ARG_OF_PERICENTER":86.674,"MEAN_ANOMALY":273.4381,"EPHEMERIS_TYPE":0,"CLASSIFICATION_TYPE":"U","NORAD_CAT_ID":52873,"ELEMENT_SET_NO":999,"REV_AT_EPOCH":18129,"BSTAR":5.5939581e-5,"MEAN_MOTION_DOT":6.03e-6,"MEAN_MOTION_DDOT":0},{"OBJECT_NAME":"STARLINK-4210","OBJECT_ID":"2022-062AW","EPOCH":"2025-09-26T15:15:34.128288","MEAN_MOTION":15.90184953,"ECCENTRICITY":0.0001244,"INCLINATION":53.2166,"RA_OF_ASC_NODE":5.2093,"ARG_OF_PERICENTER":64.5588,"MEAN_ANOMALY":295.5568,"EPHEMERIS_TYPE":0,"CLASSIFICATION_TYPE":"U","NORAD_CAT_ID":52874,"ELEMENT_SET_NO":999,"REV_AT_EPOCH":18165,"BSTAR":0.0022577551,"MEAN_MOTION_DOT":0.00761394,"MEAN_MOTION_DDOT":0},{"OBJECT_NAME":"STARLINK-4193","OBJECT_ID":"2022-062AX","EPOCH":"2025-09-26T17:47:48.282720","MEAN_MOTION":15.08842649,"ECCENTRICITY":0.00010572,"INCLINATION":53.2185,"RA_OF_ASC_NODE":30.1131,"ARG_OF_PERICENTER":89.4087,"MEAN_ANOMALY":270.7027,"EPHEMERIS_TYPE":0,"CLASSIFICATION_TYPE":"U","NORAD_CAT_ID":52875,"ELEMENT_SET_NO":999,"REV_AT_EPOCH":18131,"BSTAR":0.00017590394,"MEAN_MOTION_DOT":2.513e-5,"MEAN_MOTION_DDOT":0},{"OBJECT_NAME":"STARLINK-4200","OBJECT_ID":"2022-062AY","EPOCH":"2025-09-26T14:47:37.922496","MEAN_MOTION":15.08836427,"ECCENTRICITY":0.00012982,"INCLINATION":53.2183,"RA_OF_ASC_NODE":30.6767,"ARG_OF_PERICENTER":93.1544,"MEAN_ANOMALY":266.9597,"EPHEMERIS_TYPE":0,"CLASSIFICATION_TYPE":"U","NORAD_CAT_ID":52876,"ELEMENT_SET_NO":999,"REV_AT_EPOCH":18129,"BSTAR":3.0971342e-5,"MEAN_MOTION_DOT":2.05e-6,"MEAN_MOTION_DDOT":0},{"OBJECT_NAME":"STARLINK-4214","OBJECT_ID":"2022-062AZ","EPOCH":"2025-09-26T15:35:19.729824","MEAN_MOTION":15.08836769,"ECCENTRICITY":0.00012088,"INCLINATION":53.2189,"RA_OF_ASC_NODE":30.5325,"ARG_OF_PERICENTER":87.6612,"MEAN_ANOMALY":272.4518,"EPHEMERIS_TYPE":0,"CLASSIFICATION_TYPE":"U","NORAD_CAT_ID":52877,"ELEMENT_SET_NO":999,"REV_AT_EPOCH":18130,"BSTAR":0.00010199113,"MEAN_MOTION_DOT":1.336e-5,"MEAN_MOTION_DDOT":0},{"OBJECT_NAME":"STARLINK-4171","OBJECT_ID":"2022-062BA","EPOCH":"2025-09-26T17:42:29.104704","MEAN_MOTION":15.08852689,"ECCENTRICITY":0.00012884,"INCLINATION":53.219,"RA_OF_ASC_NODE":30.1295,"ARG_OF_PERICENTER":86.7729,"MEAN_ANOMALY":273.341,"EPHEMERIS_TYPE":0,"CLASSIFICATION_TYPE":"U","NORAD_CAT_ID":52878,"ELEMENT_SET_NO":999,"REV_AT_EPOCH":18131,"BSTAR":0.00020880505,"MEAN_MOTION_DOT":3.038e-5,"MEAN_MOTION_DDOT":0},{"OBJECT_NAME":"STARLINK-4139","OBJECT_ID":"2022-062BB","EPOCH":"2025-09-26T15:19:26.388768","MEAN_MOTION":15.08826093,"ECCENTRICITY":0.00012291,"INCLINATION":53.2174,"RA_OF_ASC_NODE":30.5748,"ARG_OF_PERICENTER":76.5202,"MEAN_ANOMALY":283.5927,"EPHEMERIS_TYPE":0,"CLASSIFICATION_TYPE":"U","NORAD_CAT_ID":52879,"ELEMENT_SET_NO":999,"REV_AT_EPOCH":18130,"BSTAR":-3.0136575e-5,"MEAN_MOTION_DOT":-7.67e-6,"MEAN_MOTION_DDOT":0},{"OBJECT_NAME":"STARLINK-4186","OBJECT_ID":"2022-062BC","EPOCH":"2025-09-26T15:24:43.794720","MEAN_MOTION":15.08832816,"ECCENTRICITY":0.00011542,"INCLINATION":53.219,"RA_OF_ASC_NODE":30.5564,"ARG_OF_PERICENTER":89.5359,"MEAN_ANOMALY":270.5765,"EPHEMERIS_TYPE":0,"CLASSIFICATION_TYPE":"U","NORAD_CAT_ID":52880,"ELEMENT_SET_NO":999,"REV_AT_EPOCH":18130,"BSTAR":4.8063264e-5,"MEAN_MOTION_DOT":4.77e-6,"MEAN_MOTION_DDOT":0},{"OBJECT_NAME":"STARLINK-4181","OBJECT_ID":"2022-062BE","EPOCH":"2025-09-26T15:51:08.829504","MEAN_MOTION":15.08836518,"ECCENTRICITY":0.00012274,"INCLINATION":53.2186,"RA_OF_ASC_NODE":30.0526,"ARG_OF_PERICENTER":84.4849,"MEAN_ANOMALY":275.6283,"EPHEMERIS_TYPE":0,"CLASSIFICATION_TYPE":"U","NORAD_CAT_ID":52882,"ELEMENT_SET_NO":999,"REV_AT_EPOCH":18131,"BSTAR":0.00012989557,"MEAN_MOTION_DOT":1.78e-5,"MEAN_MOTION_DDOT":0},{"OBJECT_NAME":"STARLINK-4260","OBJECT_ID":"2022-076A","EPOCH":"2025-09-26T16:49:30.789984","MEAN_MOTION":15.08841167,"ECCENTRICITY":0.00012481,"INCLINATION":53.2153,"RA_OF_ASC_NODE":110.2941,"ARG_OF_PERICENTER":90.5218,"MEAN_ANOMALY":269.5917,"EPHEMERIS_TYPE":0,"CLASSIFICATION_TYPE":"U","NORAD_CAT_ID":52986,"ELEMENT_SET_NO":999,"REV_AT_EPOCH":17808,"BSTAR":9.3087305e-5,"MEAN_MOTION_DOT":1.194e-5,"MEAN_MOTION_DDOT":0},{"OBJECT_NAME":"STARLINK-4259","OBJECT_ID":"2022-076B","EPOCH":"2025-09-26T19:21:51.906528","MEAN_MOTION":15.08836285,"ECCENTRICITY":0.00013686,"INCLINATION":53.2166,"RA_OF_ASC_NODE":119.8179,"ARG_OF_PERICENTER":98.3977,"MEAN_ANOMALY":261.7171,"EPHEMERIS_TYPE":0,"CLASSIFICATION_TYPE":"U","NORAD_CAT_ID":52987,"ELEMENT_SET_NO":999,"REV_AT_EPOCH":17796,"BSTAR":5.8498461e-5,"MEAN_MOTION_DOT":6.43e-6,"MEAN_MOTION_DDOT":0}]
